{
    "type": "FeatureCollection",
    "features": [
        {
            "type": "Feature",
            "id": "node_A_inlet",
            "properties": {
                "type": "inlet"
            },
            "geometry": {
                "type": "Point",
                "coordinates": [
                    11.12000,
                    46.07000
                ]
            }
        },
        {
            "type": "Feature",
            "id": "node_B_manhole",
            "properties": {
                "type": "manhole"
            },
            "geometry": {
                "type": "Point",
                "coordinates": [
                    11.12010,
                    46.06990
                ]
            }
        },
        {
            "type": "Feature",
            "id": "node_C_outfall",
            "properties": {
                "type": "outfall"
            },
            "geometry": {
                "type": "Point",
                "coordinates": [
                    11.12020,
                    46.06980
                ]
            }
        },
        {
            "type": "Feature",
            "id": "pipe_1_A_to_B",
            "properties": {
                "type": "pipe",
                "diameter_mm": 500
            },
            "geometry": {
                "type": "LineString",
                "coordinates": [
                    [
                        11.120002,
                        46.070001
                    ],
                    [
                        11.120098,
                        46.069902
                    ]
                ]
            }
        },
        {
            "type": "Feature",
            "id": "pipe_2_B_to_C",
            "properties": {
                "type": "pipe",
                "diameter_mm": 600
            },
            "geometry": {
                "type": "LineString",
                "coordinates": [
                    [
                        11.120101,
                        46.069899
                    ],
                    [
                        11.120202,
                        46.069799
                    ]
                ]
            }
        },
        {
            "type": "Feature",
            "id": "catchment_A",
            "properties": {
                "type": "catchment"
            },
            "geometry": {
                "type": "Polygon",
                "coordinates": [
                    [
                        [
                            11.11990,
                            46.07010
                        ],
                        [
                            11.12010,
                            46.07010
                        ],
                        [
                            11.12010,
                            46.07005
                        ],
                        [
                            11.11990,
                            46.07005
                        ],
                        [
                            11.11990,
                            46.07010
                        ]
                    ]
                ]
            }
        }
    ]
}